#aV2012  8  9  0  0  0.00000000     288 DD+AD WGS84 FIT  NGA
## 1700 345600.00000000   300.00000000 56148 0.0000000000000
+   31     1  2  3  4  5  6  7  8  9 10 11 12 13 14 15 16 17
+         18 19 20 21 22 23 25 26 27 28 29 30 31 32  0  0  0
+          0  0  0  0  0  0  0  0  0  0  0  0  0  0  0  0  0
+          0  0  0  0  0  0  0  0  0  0  0  0  0  0  0  0  0
+          0  0  0  0  0  0  0  0  0  0  0  0  0  0  0  0  0
++         2  2  2  2  2  2  2  2  2  2  2  2  2  2  2  2  2
++         2  2  2  2  2  2  2  2  2  2  2  2  2  2  2  0  0
++         0  0  0  0  0  0  0  0  0  0  0  0  0  0  0  0  0
++         0  0  0  0  0  0  0  0  0  0  0  0  0  0  0  0  0
++         0  0  0  0  0  0  0  0  0  0  0  0  0  0  0  0  0
%c cc cc ccc ccc cccc cccc cccc cccc ccccc ccccc ccccc ccccc
%c cc cc ccc ccc cccc cccc cccc cccc ccccc ccccc ccccc ccccc
%f  0.0000000  0.000000000  0.00000000000  0.000000000000000
%f  0.0000000  0.000000000  0.00000000000  0.000000000000000
%i    0    0    0    0      0      0      0      0         0
%i    0    0    0    0      0      0      0      0         0
/*      NGA, ST. LOUIS,MO.                                  
/*   EPHEMERIS COMPUTED FROM  1 DAYS OF DATA
/*   EPOCHA SMOOTHER  
/* CCCCCCCCCCCCCCCCCCCCCCCCCCCCCCCCCCCCCCCCCCCCCCCCCCCCCCCCC
*  2012  8  9 10 45  0.00000000                                                 
P  1 -20288.610047 -10074.219951  13895.841615    268.916865                    
V  1  -9210.106142 -15205.156161 -24406.022493      0.015050                    
P  2  12734.873416  22838.763877   6145.191312    399.352242                    
V  2  -7017.476633  -4011.805382  29648.092237      0.011269                    
P  3 -11580.511874 -12748.764327 -20762.556003     85.963907                    
V  3  24142.585784  -7706.993419  -8681.128765      0.049272                    
P  4    987.530454  20621.183693  16279.776761    268.988966                    
V  4 -15170.695396 -15229.843499  20207.659874      0.113364                    
P  5   5079.608528  19789.948047 -16918.995663   -342.068044                    
V  5  -9922.876653  19216.858377  19646.906060     -0.032916                    
P  6  -6143.664398 -14613.022161 -21225.224837     -5.999019                    
V  6  26677.242255  -5639.376848  -3505.669212     -0.067291                    
P  7 -15663.129488   3117.157089 -21248.032061    109.062471                    
V  7 -15856.867412 -21777.881712   8214.713254      0.039728                    
P  8  -6355.626540  15000.990263 -20750.931525      1.959048                    
V  8 -14919.732543 -22030.534940 -11883.007043      0.001894                    
P  9  19754.399672  14372.335633   9792.078283    177.479474                    
V  9   6659.840438  11617.622312 -28922.417182      0.025881                    
P 10  -8507.472189  24813.377104  -2653.019326    -47.623278                    
V 10  -4557.452575   1434.406880  31420.380993     -0.012544                    
P 11 -23308.207213 -11869.145753   5071.939140   -290.380637                    
V 11  -2856.600704  -7883.264837 -28962.612147     -0.039178                    
P 12  14729.085413   2887.176607  21880.112221     84.477175                    
V 12 -10742.291364  25624.066110   4033.503272      0.020540                    
P 13 -25129.290053   5683.799735  -6828.452683    189.136331                    
V 13  -8515.879197  -1444.799308  30645.868158     -0.025277                    
P 14  12406.101948 -13820.197524  19115.327428    209.482190                    
V 14  23907.471943   -564.458917 -16230.780984      0.011159                    
P 15  22911.978099   5402.215407 -12513.284366    -93.501016                    
V 15 -15210.353228   5094.946229 -25446.134160     -0.005161                    
P 16  -3742.803238 -19667.926524 -17294.535421   -243.277997                    
V 16  10529.356705 -19404.756487  20100.443647     -0.009305                    
P 17 -12778.619060  14239.735346  18501.268535    106.516203                    
V 17 -23237.281486    849.493033 -17101.254723     -0.029810                    
P 18  16441.870720 -16649.373425 -11841.645197    209.243499                    
V 18  -2762.127959  15981.306873 -25861.605248      0.018186                    
P 19 -21157.308702  -8667.175836 -13908.977980   -292.671679                    
V 19  17288.098729  -2748.229588 -24297.170959     -0.036181                    
P 20 -16652.122403   1252.056204  20485.004247     65.965265                    
V 20   7809.801459 -25347.067134   7904.873727      0.006446                    
P 21  14283.365248  -6872.454626 -20850.368649   -242.037214                    
V 21  16796.605371  22058.085360   3571.042331     -0.024591                    
P 22   9585.944014 -24685.047279    843.376118    146.400354                    
V 22   4028.899779    745.969957 -31034.859798      0.003467                    
P 23 -26212.202258   -520.154174   5446.679471    176.878296                    
V 23   6419.979276  -3280.921982  30474.521596     -0.038921                    
P 25  16930.463402 -11687.403673  16722.491179     39.263704                    
V 25  -6227.442429  20457.792024  20612.180344      0.009913                    
P 26  12019.632451  13060.013915 -20492.599949   -320.459036                    
V 26 -24424.979029   1834.321601 -13225.271983      0.121864                    
P 27  20043.928699  16709.565773   6858.514770    418.264209                    
V 27   3844.403325   6924.487951 -30337.951237      0.041251                    
P 28 -11965.941854  23492.529032  -1434.022445    173.435299                    
V 28  -1149.375817  -3296.471814 -32248.162950      0.037943                    
P 29  26205.477370  -3736.487783  -1804.603456    342.337071                    
V 29   2609.505567   2511.783648  31752.030413      0.041166                    
P 30   1220.252228 -25283.557567  -8426.680427   -351.418055                    
V 30   5278.715357  -9087.375524  29289.095409     -0.239293                    
P 31  -2983.987231 -21326.948708  15569.594203    266.282053                    
V 31  13015.869813  14595.470323  22997.744564      0.026818                    
P 32 -12470.633722  -9562.953640  21643.689447   -474.599926                    
V 32  12349.186477 -24026.694316  -3050.616588     -0.043092                    
EOF
